[{"OBJECT_NAME":"ONEWEB-0238","OBJECT_ID":"2021-045T","EPOCH":"2026-02-19T02:53:50.924256","MEAN_MOTION":13.15549291,"ECCENTRICITY":0.00019726,"INCLINATION":87.8967,"RA_OF_ASC_NODE":282.7444,"ARG_OF_PERICENTER":86.7035,"MEAN_ANOMALY":273.4321,"EPHEMERIS_TYPE":0,"CLASSIFICATION_TYPE":"U","NORAD_CAT_ID":48784,"ELEMENT_SET_NO":999,"REV_AT_EPOCH":22885,"BSTAR":-0.00013057213,"MEAN_MOTION_DOT":-3.6e-7,"MEAN_MOTION_DDOT":0},{"OBJECT_NAME":"ONEWEB-0240","OBJECT_ID":"2021-045U","EPOCH":"2026-02-19T03:24:27.758880","MEAN_MOTION":13.15546972,"ECCENTRICITY":0.00016345,"INCLINATION":87.897,"RA_OF_ASC_NODE":282.7404,"ARG_OF_PERICENTER":96.6236,"MEAN_ANOMALY":263.508,"EPHEMERIS_TYPE":0,"CLASSIFICATION_TYPE":"U","NORAD_CAT_ID":48785,"ELEMENT_SET_NO":999,"REV_AT_EPOCH":22888,"BSTAR":-0.00013703021,"MEAN_MOTION_DOT":-3.9e-7,"MEAN_MOTION_DDOT":0},{"OBJECT_NAME":"ONEWEB-0246","OBJECT_ID":"2021-045V","EPOCH":"2026-02-19T03:16:28.174944","MEAN_MOTION":13.15549935,"ECCENTRICITY":0.00014079,"INCLINATION":87.8973,"RA_OF_ASC_NODE":282.7509,"ARG_OF_PERICENTER":82.641,"MEAN_ANOMALY":277.488,"EPHEMERIS_TYPE":0,"CLASSIFICATION_TYPE":"U","NORAD_CAT_ID":48786,"ELEMENT_SET_NO":999,"REV_AT_EPOCH":22875,"BSTAR":-0.00022234979,"MEAN_MOTION_DOT":-7.1e-7,"MEAN_MOTION_DDOT":0},{"OBJECT_NAME":"ONEWEB-0210","OBJECT_ID":"2021-045W","EPOCH":"2026-02-19T02:39:57.117600","MEAN_MOTION":13.15548852,"ECCENTRICITY":6.648e-5,"INCLINATION":87.8972,"RA_OF_ASC_NODE":282.7535,"ARG_OF_PERICENTER":107.4141,"MEAN_ANOMALY":252.7062,"EPHEMERIS_TYPE":0,"CLASSIFICATION_TYPE":"U","NORAD_CAT_ID":48787,"ELEMENT_SET_NO":999,"REV_AT_EPOCH":22879,"BSTAR":0.00016017597,"MEAN_MOTION_DOT":7.3e-7,"MEAN_MOTION_DDOT":0},{"OBJECT_NAME":"ONEWEB-0214","OBJECT_ID":"2021-045X","EPOCH":"2026-02-19T02:52:30.362304","MEAN_MOTION":13.15547987,"ECCENTRICITY":0.00010994,"INCLINATION":87.8975,"RA_OF_ASC_NODE":282.7467,"ARG_OF_PERICENTER":82.3234,"MEAN_ANOMALY":277.8021,"EPHEMERIS_TYPE":0,"CLASSIFICATION_TYPE":"U","NORAD_CAT_ID":48788,"ELEMENT_SET_NO":999,"REV_AT_EPOCH":22876,"BSTAR":-0.00065419994,"MEAN_MOTION_DOT":-2.33e-6,"MEAN_MOTION_DDOT":0},{"OBJECT_NAME":"ONEWEB-0221","OBJECT_ID":"2021-045Y","EPOCH":"2026-02-19T03:02:46.706208","MEAN_MOTION":13.15549723,"ECCENTRICITY":0.00014855,"INCLINATION":87.8973,"RA_OF_ASC_NODE":282.7563,"ARG_OF_PERICENTER":95.6517,"MEAN_ANOMALY":264.4783,"EPHEMERIS_TYPE":0,"CLASSIFICATION_TYPE":"U","NORAD_CAT_ID":48789,"ELEMENT_SET_NO":999,"REV_AT_EPOCH":22885,"BSTAR":-0.00020170028,"MEAN_MOTION_DOT":-6.3e-7,"MEAN_MOTION_DDOT":0},{"OBJECT_NAME":"ONEWEB-0213","OBJECT_ID":"2021-045Z","EPOCH":"2026-02-19T02:46:48.131040","MEAN_MOTION":13.15546648,"ECCENTRICITY":0.00013166,"INCLINATION":87.8972,"RA_OF_ASC_NODE":282.7621,"ARG_OF_PERICENTER":96.3676,"MEAN_ANOMALY":263.7604,"EPHEMERIS_TYPE":0,"CLASSIFICATION_TYPE":"U","NORAD_CAT_ID":48790,"ELEMENT_SET_NO":999,"REV_AT_EPOCH":22891,"BSTAR":-0.00011928117,"MEAN_MOTION_DOT":-3.2e-7,"MEAN_MOTION_DDOT":0},{"OBJECT_NAME":"ONEWEB-0212","OBJECT_ID":"2021-045AA","EPOCH":"2026-02-19T02:13:43.294944","MEAN_MOTION":13.15549268,"ECCENTRICITY":0.00015581,"INCLINATION":87.8968,"RA_OF_ASC_NODE":282.761,"ARG_OF_PERICENTER":85.6661,"MEAN_ANOMALY":274.4647,"EPHEMERIS_TYPE":0,"CLASSIFICATION_TYPE":"U","NORAD_CAT_ID":48791,"ELEMENT_SET_NO":999,"REV_AT_EPOCH":22890,"BSTAR":0.00046827681,"MEAN_MOTION_DOT":1.89e-6,"MEAN_MOTION_DDOT":0},{"OBJECT_NAME":"ONEWEB-0227","OBJECT_ID":"2021-045AB","EPOCH":"2026-02-19T02:12:35.216064","MEAN_MOTION":13.15550049,"ECCENTRICITY":0.00015223,"INCLINATION":87.8966,"RA_OF_ASC_NODE":282.7653,"ARG_OF_PERICENTER":90.5358,"MEAN_ANOMALY":269.5946,"EPHEMERIS_TYPE":0,"CLASSIFICATION_TYPE":"U","NORAD_CAT_ID":48792,"ELEMENT_SET_NO":999,"REV_AT_EPOCH":22885,"BSTAR":0.00058377811,"MEAN_MOTION_DOT":2.33e-6,"MEAN_MOTION_DDOT":0},{"OBJECT_NAME":"ONEWEB-0226","OBJECT_ID":"2021-045AC","EPOCH":"2026-02-19T02:03:26.586432","MEAN_MOTION":13.15550039,"ECCENTRICITY":0.00012209,"INCLINATION":87.8958,"RA_OF_ASC_NODE":282.7763,"ARG_OF_PERICENTER":89.7561,"MEAN_ANOMALY":270.371,"EPHEMERIS_TYPE":0,"CLASSIFICATION_TYPE":"U","NORAD_CAT_ID":48793,"ELEMENT_SET_NO":999,"REV_AT_EPOCH":22882,"BSTAR":0.00053943098,"MEAN_MOTION_DOT":2.16e-6,"MEAN_MOTION_DDOT":0},{"OBJECT_NAME":"ONEWEB-0224","OBJECT_ID":"2021-045AD","EPOCH":"2026-02-19T03:00:29.628288","MEAN_MOTION":13.15547431,"ECCENTRICITY":0.00022209,"INCLINATION":87.8963,"RA_OF_ASC_NODE":282.8041,"ARG_OF_PERICENTER":106.0165,"MEAN_ANOMALY":254.121,"EPHEMERIS_TYPE":0,"CLASSIFICATION_TYPE":"U","NORAD_CAT_ID":48794,"ELEMENT_SET_NO":999,"REV_AT_EPOCH":22875,"BSTAR":-0.00062442107,"MEAN_MOTION_DOT":-2.22e-6,"MEAN_MOTION_DDOT":0},{"OBJECT_NAME":"ONEWEB-0233","OBJECT_ID":"2021-045AE","EPOCH":"2026-02-19T03:07:08.861088","MEAN_MOTION":13.15549778,"ECCENTRICITY":0.00014879,"INCLINATION":87.8958,"RA_OF_ASC_NODE":282.8128,"ARG_OF_PERICENTER":93.2855,"MEAN_ANOMALY":266.8446,"EPHEMERIS_TYPE":0,"CLASSIFICATION_TYPE":"U","NORAD_CAT_ID":48795,"ELEMENT_SET_NO":999,"REV_AT_EPOCH":22877,"BSTAR":-0.00017514872,"MEAN_MOTION_DOT":-5.3e-7,"MEAN_MOTION_DDOT":0},{"OBJECT_NAME":"ONEWEB-0190","OBJECT_ID":"2021-045AF","EPOCH":"2026-02-19T02:49:04.934208","MEAN_MOTION":13.15547216,"ECCENTRICITY":0.00012043,"INCLINATION":87.8961,"RA_OF_ASC_NODE":282.7759,"ARG_OF_PERICENTER":115.1059,"MEAN_ANOMALY":245.0196,"EPHEMERIS_TYPE":0,"CLASSIFICATION_TYPE":"U","NORAD_CAT_ID":48796,"ELEMENT_SET_NO":999,"REV_AT_EPOCH":22884,"BSTAR":5.712786e-6,"MEAN_MOTION_DOT":1.5e-7,"MEAN_MOTION_DDOT":0},{"OBJECT_NAME":"ONEWEB-0236","OBJECT_ID":"2021-045AG","EPOCH":"2026-02-19T03:14:11.283648","MEAN_MOTION":13.15549986,"ECCENTRICITY":0.00016589,"INCLINATION":87.8958,"RA_OF_ASC_NODE":282.7839,"ARG_OF_PERICENTER":82.34,"MEAN_ANOMALY":277.7918,"EPHEMERIS_TYPE":0,"CLASSIFICATION_TYPE":"U","NORAD_CAT_ID":48797,"ELEMENT_SET_NO":999,"REV_AT_EPOCH":22873,"BSTAR":-0.00023813559,"MEAN_MOTION_DOT":-7.7e-7,"MEAN_MOTION_DDOT":0},{"OBJECT_NAME":"ONEWEB-0248","OBJECT_ID":"2021-045AH","EPOCH":"2026-02-19T03:32:26.499552","MEAN_MOTION":13.15549836,"ECCENTRICITY":0.0001696,"INCLINATION":87.8971,"RA_OF_ASC_NODE":282.7526,"ARG_OF_PERICENTER":105.2147,"MEAN_ANOMALY":254.9171,"EPHEMERIS_TYPE":0,"CLASSIFICATION_TYPE":"U","NORAD_CAT_ID":48798,"ELEMENT_SET_NO":999,"REV_AT_EPOCH":22889,"BSTAR":-4.925652e-5,"MEAN_MOTION_DOT":-6.0e-8,"MEAN_MOTION_DDOT":0},{"OBJECT_NAME":"ONEWEB-0225","OBJECT_ID":"2021-045AJ","EPOCH":"2026-02-19T02:14:51.690912","MEAN_MOTION":13.15550646,"ECCENTRICITY":0.00011953,"INCLINATION":87.8962,"RA_OF_ASC_NODE":282.7809,"ARG_OF_PERICENTER":108.1824,"MEAN_ANOMALY":251.9437,"EPHEMERIS_TYPE":0,"CLASSIFICATION_TYPE":"U","NORAD_CAT_ID":48799,"ELEMENT_SET_NO":999,"REV_AT_EPOCH":22889,"BSTAR":0.00053097097,"MEAN_MOTION_DOT":2.13e-6,"MEAN_MOTION_DDOT":0}]
