ONEWEB-0238             
1 48784U 21045T   26050.12072829 -.00000036  00000+0 -13057-3 0  9996
2 48784  87.8967 282.7444 0001972  86.7035 273.4321 13.15549291228854
ONEWEB-0240             
1 48785U 21045U   26050.14198795 -.00000039  00000+0 -13703-3 0  9991
2 48785  87.8970 282.7404 0001634  96.6236 263.5080 13.15546972228881
ONEWEB-0246             
1 48786U 21045V   26050.13643721 -.00000071  00000+0 -22235-3 0  9991
2 48786  87.8973 282.7509 0001407  82.6410 277.4880 13.15549935228758
ONEWEB-0210             
1 48787U 21045W   26050.11107775  .00000073  00000+0  16018-3 0  9996
2 48787  87.8972 282.7535 0000664 107.4141 252.7062 13.15548852228797
ONEWEB-0214             
1 48788U 21045X   26050.11979586 -.00000233  00000+0 -65420-3 0  9995
2 48788  87.8975 282.7467 0001099  82.3234 277.8021 13.15547987228760
ONEWEB-0221             
1 48789U 21045Y   26050.12692947 -.00000063  00000+0 -20170-3 0  9994
2 48789  87.8973 282.7563 0001485  95.6517 264.4783 13.15549723228853
ONEWEB-0213             
1 48790U 21045Z   26050.11583485 -.00000032  00000+0 -11928-3 0  9998
2 48790  87.8972 282.7621 0001316  96.3676 263.7604 13.15546648228910
ONEWEB-0212             
1 48791U 21045AA  26050.09286221  .00000189  00000+0  46828-3 0  9992
2 48791  87.8968 282.7610 0001558  85.6661 274.4647 13.15549268228903
ONEWEB-0227             
1 48792U 21045AB  26050.09207426  .00000233  00000+0  58378-3 0  9996
2 48792  87.8966 282.7653 0001522  90.5358 269.5946 13.15550049228858
ONEWEB-0226             
1 48793U 21045AC  26050.08572438  .00000216  00000+0  53943-3 0  9998
2 48793  87.8958 282.7763 0001220  89.7561 270.3710 13.15550039228828
ONEWEB-0224             
1 48794U 21045AD  26050.12534292 -.00000222  00000+0 -62442-3 0  9993
2 48794  87.8963 282.8041 0002220 106.0165 254.1210 13.15547431228758
ONEWEB-0233             
1 48795U 21045AE  26050.12996367 -.00000053  00000+0 -17515-3 0  9992
2 48795  87.8958 282.8128 0001487  93.2855 266.8446 13.15549778228775
ONEWEB-0190             
1 48796U 21045AF  26050.11741822  .00000015  00000+0  57128-5 0  9998
2 48796  87.8961 282.7759 0001204 115.1059 245.0196 13.15547216228840
ONEWEB-0236             
1 48797U 21045AG  26050.13485282 -.00000077  00000+0 -23814-3 0  9999
2 48797  87.8958 282.7839 0001658  82.3400 277.7918 13.15549986228732
ONEWEB-0248             
1 48798U 21045AH  26050.14752893 -.00000006  00000+0 -49257-4 0  9998
2 48798  87.8971 282.7526 0001696 105.2147 254.9171 13.15549836228895
ONEWEB-0225             
1 48799U 21045AJ  26050.09365383  .00000213  00000+0  53097-3 0  9991
2 48799  87.8962 282.7809 0001195 108.1824 251.9437 13.15550646228891
